#dP2019 10 27  0  0  0.00000000      97 __u+U IGS08 FIT  IAC
## 2077      0.00000000   900.00000000 58783 0.0000000000000
+  115   C01C02C03C04C05C06C07C08C09C10C11C12C13C14C16C19C20
+        C21C22C23C24C25C26C27C28C29C30C32C33C34C35C36C37E01
+        E02E03E04E05E07E08E09E11E12E13E14E15E18E19E21E24E25
+        E26E27E30E31E33E36G01G02G03G04G05G06G07G08G09G10G11
+        G12G13G14G15G16G17G18G19G20G21G22G23G24G25G26G27G28
+        G29G30G31G32J01J02J03J07R01R02R03R05R07R08R09R11R12
+        R13R14R15R16R17R18R19R20R21R22R23R24R26  0  0  0  0
++        13 13 13 13 13  8  8  8  8  8  7  7  7  7  8  7  7
++         7  7  7  7  7  7  7  7  8  7  7  7  7  8  8  8  4
++         4  4  3  4  4  4  3  3  4  4  4  4  3  4  4  4  4
++         4  4  4  4  4  4  3  3  3  3  3  3  3  3  3  3  3
++         3  3  3  3  3  3  3  3  3  3  3  3  3  3  3  3  3
++         3  3  3  3  8  8  8 13  6  5  5  5  5  5  5  5  5
++         6  5  5  6  5  5  6  6  5  5  5  6  7  0  0  0  0
%c M  cc GPS ccc cccc cccc cccc cccc ccccc ccccc ccccc ccccc
%c cc cc ccc ccc cccc cccc cccc cccc ccccc ccccc ccccc ccccc
%f  1.2500000  1.025000000  0.00000000000  0.000000000000000
%f  0.0000000  0.000000000  0.00000000000  0.000000000000000
%i    0    0    0    0      0      0      0      0         0
%i    0    0    0    0      0      0      0      0         0
/* INFORMATION & ANALYSIS CENTER (IAC)            FINAL DATA
/* S/V CLOCKS ARE ALIGNED TO GNSS TIME                      
/* G:C1WC2W R:C1PC2P E:C1XC5X C:C2IC6I J:C1CC2S             
/* PCV:IGS14_2076 OL/AL:FES2004  NONE     YN ORB:CoN CLK:CoN
*  2019 10 27 19  0  0.00000000
PC01 -32289.250658  27089.022212    993.381250     66.246876
PC02   4363.399212  41944.831024   -631.286355    231.162861
PC03 -14772.659315  39461.277532    253.335237    407.389046
PC04 -39574.389256  14528.948307    541.369707   -406.194168
PC05  21866.618139  36018.461540   -900.528632      1.368911
PC06  -8524.188239  24673.936311 -32692.753164    343.155929
PC07 -23684.525084  26877.181008  22045.558900   -223.209809
PC08 -15427.701190  38005.982160  10566.068752    -22.780167
PC09   6871.675417  33130.849636 -24720.787984     71.967991
PC10  -8245.408715  28260.275994  30239.598682   -309.717730
PC11  18130.339248  14480.230403 -15495.626108     32.224954
PC12   4786.937304  25512.696511  10432.325697    303.810878
PC13  -6194.826579  41644.757370  -4191.451569     75.316805
PC14  26072.795917   6747.811229  -7394.942372     99.292830
PC16  -4424.604725  26807.430633 -32156.438556   -901.736084
PC19 -27855.512005   -610.383750  -1412.559168    229.539433
PC20 -20540.335448 -11594.298826  14899.666006   -220.573096
PC21    812.449203  16016.398580 -22829.586095    223.481009
PC22 -19053.364802  10900.986055 -17217.556304   -280.937986
PC23  18090.376210 -20763.125746   4532.421017   -892.823084
PC24   9711.883707  13737.221206  22271.941204   -878.588199
PC25  19668.594992  -5820.583355  18915.568899   -394.244250
PC26  -4838.566149  24276.258260  12915.679998    438.686566
PC27  -4215.271492 -25625.474764 -10242.635469    214.510976
PC28   9882.822456 -14383.698413 -21767.884295    205.727743
PC29 -18340.912122  -4459.765465  20549.365151    137.951029
PC30 -16541.336305 -21345.216189   7066.382748    214.817373
PC32   -893.941271 -16030.514573  22829.203638   -884.321387
PC33  27877.631416    512.564749   1360.803381   -508.638006
PC34  16597.245062  21181.555565  -7361.570898   -187.296618
PC35  -9518.553622  14639.062477  21765.730994   -489.777302
PC36 -19747.084366   5223.188379 -18979.239931   -930.739661
PC37   5847.349342 -24259.559958 -12451.847231   -666.790992
PE01  25662.999247  -5563.582775  13672.427197   -719.473622
PE02 -25683.723487   5641.839888 -13590.948990     87.899798
PE03 -26985.934142  -5351.606722 -10906.646832   -226.518389
PE04  15870.148039 -10042.551093  22879.167539   -393.919704
PE05 -22406.817802 -17783.229537   7594.171968   -436.386462
PE07   4760.547742  19741.680287 -21539.156438   -290.385592
PE08 -15570.758403  10165.584133 -23030.202469   6271.591450
PE09  -4997.328785 -19593.217079  21610.458937   6271.742358
PE11   -444.258936 -29549.946966  -1716.718331   5534.897725
PE12  11480.475943 -19672.126548 -18904.768847   6129.008679
PE13    477.865019  29540.254118   1885.526629    394.685863
PE14   4212.709839  20682.643314  12674.892385   -772.478100
PE15 -11189.095089  19991.146131  18755.775116    889.961464
PE18   4275.834043 -22768.892978 -21817.746795   -867.084413
PE19  27287.382837   6982.897984   9099.009472     -3.200615
PE21  13552.147614  10386.031840  24186.297610   -562.624921
PE24   6541.991711 -20299.703674 -20519.660425   5797.959708
PE25 -13464.928909 -10443.595177 -24189.019000   1634.330166
PE26  11915.872861  21735.812081 -16185.921767   3945.206211
PE27  -6561.755248  20334.489810  20497.030236    358.085740
PE30 -22856.135129  18197.600361   4785.575486   4432.745607
PE31  22772.634553 -18301.539789  -4759.855577   -470.067667
PE33  16315.031658   1306.198737 -24657.457701   -471.531863
PE36 -11896.940040 -21774.400247  16139.833927    644.320846
PG01 -13814.518304  18806.059170  12178.660553   -177.280319
PG02  14754.841584   2764.689644 -21290.694478   -334.702821
PG03 -19803.131564  13420.721981 -11503.707818    -28.093022
PG04   7944.058184  21831.025104 -12881.716123     -3.365298
PG05  25648.509027  -2207.146346  -7087.412758     -2.774722
PG06   8069.077260  17404.868213 -18313.405446   -104.603073
PG07  -5211.210702  25637.600316   2966.548381   -136.161408
PG08 -17459.165070   2037.037324  20009.668354    -11.365457
PG09    443.368383  18989.288739 -18611.381054    -67.993914
PG10  -8601.301076 -13173.898975  21488.281881   -111.196044
PG11 -10319.196225  17073.885178  17163.163300   -465.562095
PG12  23438.161906  -9721.285358  -7768.007784    189.671447
PG13  19783.542752   8011.313716  15734.167511    -36.374408
PG14 -19026.863787 -18138.720332  -4112.871290    -53.798111
PG15  17311.007962  -4539.912147  19443.897646   -276.868402
PG16 -25216.807298  -1853.761790  -9019.604216    -87.375372
PG17  14084.487222  21885.146089   5925.404701    152.038350
PG18 -15357.202832  11657.549802  17722.197475     96.071087
PG19  17721.019659  19674.893069  -2202.175513   -247.891479
PG20   2040.848504 -16981.375139  20173.101267    527.316454
PG21    342.688141 -25939.305961   6945.062823    -95.526614
PG22 -23782.270952  11074.831662  -3575.566144   -767.341461
PG23  -9978.436975  11782.582975 -21255.673027   -159.000656
PG24  14193.158688 -17214.787084  13970.827736     -4.075081
PG25  11327.010599 -15836.344464 -18158.452555    -16.281316
PG26 -19534.546093  -6813.768060 -16780.044333     71.081822
PG27 -21440.928460  -9706.667823  12492.705802   -101.162214
PG28   7967.051338  13615.504256  21960.844112    757.473330
PG29   2041.503729 -17652.846200 -19762.789328     59.919896
PG30   2600.678086  22989.224894  12903.587852    -70.857135
PG31  -9556.203915 -15268.094641 -19378.941698      0.796926
PG32 -15579.078353 -20924.662631   5401.908444    105.659863
PJ01 -31994.065327  16401.480320 -17405.634260   -335.978986
PJ02 -27897.226052  31694.822678   3828.228544     -6.578457
PJ03 -25875.470381  22578.009287  29533.918380     -4.894546
PJ07 -25406.953267  33659.125795    -41.995661     -0.414941
PR01  11284.235530  -7980.634859  21436.144825     51.799586
PR02 -10945.763324 -12366.232218  19492.786396    394.916674
PR03 -23497.859919  -8548.188915   5203.026912      3.831377
PR05  -8749.840688   8612.115174 -22359.378062     38.292426
PR07  23652.748913   8302.857667  -4576.923673    -28.605600
PR08  22528.377808   -140.726653  11995.741565     14.809658
PR09   1234.516511  13746.942903  21454.740704     97.968429
PR11  19501.202548 -12906.047114  10266.808082     21.919817
PR12  14929.091788 -19655.575212  -6362.262804     73.992860
PR13   1221.700089 -15278.009747 -20400.568328    -30.213377
PR14 -12728.147582  -2033.595367 -21990.218484     44.432138
PR15 -19401.152967  12334.426333 -11024.791075    104.528490
PR16 -14430.209030  20033.361135   6635.082784      1.597829
PR17 -11991.219234 -15633.083945  16182.558326    271.640349
PR18 -10456.273192   1527.954632  23232.376511     12.412302
PR19  -3813.273348  17746.177468  17929.375876    -60.996368
PR20   5953.159905  24781.158033    467.386075   -394.527139
PR21  12003.282612  15073.128573 -16734.423460    -81.453303
PR22   9468.663213  -4853.211573 -23183.314030   -182.041086
PR23    418.284762 -21651.293942 -13479.650068    263.008920
PR24  -7348.997418 -24370.552639   1672.650798   -186.155708
PR26   4805.002326  24734.282146   4100.530001      3.662901
EOF
